{"type":"FeatureCollection","description":"中華民國領海基線（2009年公告修正版）- 台灣本島+澎湖、東沙群島","features":[{"type":"Feature","properties":{"name":"中華民國領海基線（台灣本島+澎湖）","name_en":"ROC Territorial Sea Baseline (Taiwan & Penghu)","source":"中華民國內政部 2009年公告修正（Wikipedia 整理）","points":["T1 三貂角","T2 棉花嶼","T3 彭佳嶼1","T4 彭佳嶼2","T5 麟山鼻","T6 大堀溪","T7 大潭","T8 翁公石","T9 花嶼1","T10 花嶼3","T11 花嶼2","T12 貓嶼","T13 七美嶼","T14 琉球嶼","T15 七星岩","T16 小蘭嶼1","T17 小蘭嶼2","T18 飛岩","T19 石梯鼻","T20 烏石鼻","T21 米島","T22 龜頭岸"]},"geometry":{"type":"Polygon","coordinates":[[[122.00776944444445,25.00828611111111],[122.10910833333332,25.483852777777777],[122.08602499999999,25.629863888888888],[122.07339999999999,25.632622222222224],[121.50942777777777,25.291452777777778],[121.09821388888888,25.068219444444445],[121.03291388888888,25.032605555555556],[119.54094722222221,23.78755277777778],[119.31856666666667,23.411894444444442],[119.31447777777778,23.403488888888887],[119.31363888888889,23.39928611111111],[119.31834166666667,23.324697222222223],[119.4161388888889,23.193277777777777],[120.35364722222222,22.32381388888889],[120.82641388888888,21.756322222222224],[121.61345833333333,21.93839722222222],[121.61731666666665,21.94968888888889],[121.52254722222222,22.685425],[121.51660833333334,23.48331111111111],[121.86214166666666,24.480505555555553],[121.903125,24.59935833333333],[121.96466111111111,24.83951111111111],[122.00776944444445,25.00828611111111]]]}},{"type":"Feature","properties":{"name":"中華民國領海基線（東沙群島）","name_en":"ROC Territorial Sea Baseline (Dongsha/Pratas Islands)","source":"中華民國內政部 2009年公告修正（Wikipedia 整理）","points":["D1 西北角","D2 東沙北角","D3 東沙南角","D4 西南角"]},"geometry":{"type":"Polygon","coordinates":[[[116.76549722222222,20.767755555555553],[116.71016111111112,20.734425],[116.696325,20.698666666666668],[116.75465277777778,20.594755555555555],[116.76549722222222,20.767755555555553]]]}}]}