{"type":"FeatureCollection","description":"中華民國鄰接區外界線（24海里）- 台灣本島+澎湖、東沙群島","features":[{"type":"Feature","properties":{"name":"中華民國鄰接區（24海里，台灣本島+澎湖）","name_en":"ROC Contiguous Zone 24NM (Taiwan & Penghu)","zone_nm":24,"zone_m":44448.0,"source":"中華民國內政部 2009年基線公告 + 24NM 測地緩衝","method":"Azimuthal Equidistant geodetic buffer from official baselines"},"geometry":{"type":"Polygon","coordinates":[[[122.43624376340004,24.916665044195707],[122.39259915119015,24.748016228715336],[122.39244813927347,24.74743376837227],[122.33015589826401,24.50746013564694],[122.32745589461402,24.497594751982533],[122.32448398403965,24.48779504000958],[122.321242132337,24.478067278755415],[122.27991360414322,24.359328592246946],[122.27936084363849,24.357750102831258],[121.95197752256918,23.421965959275113],[121.95497815266623,22.710207592964682],[122.04464710667915,21.99671979060362],[122.04576636484961,21.9866768816309],[122.04661432022027,21.976610922117008],[122.04719049480447,21.966528285067845],[122.04749458288664,21.9564353526525],[122.04752645106606,21.94633851216087],[122.04728613819182,21.936244151961628],[122.04677385518875,21.926158657463024],[122.04598998477543,21.916088407079098],[122.04493508107441,21.906039768203716],[122.04360986911517,21.896019093195203],[122.04201524423112,21.886032715373705],[122.04015227135044,21.876086945034128],[122.0380221841826,21.866188065476848],[122.03562638430049,21.85634232905878],[122.03296644011981,21.846555953267146],[122.03004408577598,21.836835116818463],[122.02686121990057,21.827185955784934],[122.02297353877091,21.815904577756257],[122.01964970134864,21.806645665438023],[122.01608611266442,21.797464960758308],[122.01228492215073,21.78836788177587],[122.00824841813512,21.77935979616889],[122.00397902639781,21.77044601809929],[121.99947930865262,21.761631805110646],[121.9947519609517,21.75292235506137],[121.98979981201593,21.744322803094903],[121.98462582149143,21.73583821864866],[121.9792330781339,21.72747360250324],[121.97362479792166,21.719233883873684],[121.96780432209869,21.71112391754428],[121.96177511514915,21.703148481048466],[121.95554076270442,21.69531227189551],[121.94910496938411,21.687619904845334],[121.94247155657229,21.680075909233068],[121.93564446013055,21.672684726344674],[121.92862772804898,21.665450706845217],[121.9214255180367,21.658378108261015],[121.91404209505325,21.651471092517177],[121.90648182878256,21.64473372353166],[121.8987491910506,21.63816996486738],[121.89084875318858,21.631783677443423],[121.88278518334289,21.62557861730668],[121.87456324373382,21.619558433465084],[121.8661877878639,21.613726665783627],[121.8576637576782,21.608086742944188],[121.84899618067767,21.602641980470345],[121.84019016698733,21.5973955788182],[121.8312509063809,21.59235062153416],[121.82218366526351,21.58751007348078],[121.81299378361416,21.58287677913141],[121.80368667188964,21.578453460934814],[121.79426780789146,21.574242717750245],[121.78474273359757,21.570247023354273],[121.77511705196055,21.566468725019643],[121.7653964236742,21.56291004216736],[121.7555865639096,21.55957306509238],[121.7456932390233,21.556459753763743],[121.73572226323857,21.553571936699743],[121.725679495302,21.55091130991865],[121.71557083511676,21.548479435965675],[120.93056909643352,21.366900654475064],[120.9203013101575,21.364621990975138],[120.90997704631653,21.36258025587278],[120.89960251755886,21.360776677307943],[120.88918396602664,21.35921234012144],[120.87872765968955,21.357888185218375],[120.86823988866458,21.356805009016025],[120.8577269615241,21.35596346297663],[120.84719520159426,21.355364053225248],[120.83665094324553,21.355007140252862],[120.82610052817753,21.35489293870496],[120.81555030169986,21.35502151725563],[120.80500660901104,21.355392798567365],[120.79447579147758,21.356006559336368],[120.78396418291504,21.356862430423583],[120.77347810587307,21.357959897071275],[120.76302386792644,21.359298299204934],[120.75260775797383,21.3608768318206],[120.74223604254679,21.362694545457128],[120.73191496213009,21.364750346753336],[120.72165072749634,21.367042999089687],[120.71144951605586,21.369571123314063],[120.70131746822466,21.372333198551456],[120.69126068381152,21.37532756309692],[120.68128521842718,21.3785524153915],[120.67139707991647,21.38200581508041],[120.6616022248162,21.385685684153167],[120.65190655484007,21.389589808164796],[120.64231591339289,21.393715837537663],[120.63283608211604,21.398061288943115],[120.62347277746557,21.40262354676225],[120.61423164732538,21.407399864624992],[120.6051182676571,21.41238736702672],[120.5961381391884,21.417583051021488],[120.58729668414182,21.42298378799096],[120.57859924300577,21.428586325488176],[120.57005107134961,21.434387289155037],[120.56165733668445,21.44038318471255],[120.55342311537173,21.446570400022768],[120.54535338958104,21.45294520722123],[120.53745304429921,21.459503764918807],[120.52972686439209,21.466242120471758],[120.52217953172106,21.473156212318703],[120.51481562231582,21.480241872383314],[120.50763960360491,21.487494828541305],[120.50065583170617,21.49491070715055],[120.49386854877811,21.50248503564263],[120.48728188043435,21.510213245174754],[120.02994473692162,22.057694160476565],[119.11078202913473,22.908272420252246],[119.10367662098918,22.914937513011562],[119.09674039968273,22.92175409277549],[119.08997714605235,22.928718467914408],[119.08339054896528,22.935826866237477],[119.07698420330256,22.943075436999788],[119.07076160798937,22.95046025295229],[119.06472616407233,22.957977312433723],[119.05888117284577,22.96562254150338],[118.96091010032754,23.09681772671284],[118.95491179198696,23.105055479182735],[118.94913500270312,23.113427789101465],[118.94358329452064,23.121929552585744],[118.93826009425253,23.130555585927855],[118.93316869132077,23.139300628711506],[118.92831223567502,23.148159346975937],[118.9236937357904,23.15712633642661],[118.91931605674573,23.166196125690526],[118.9151819183843,23.175363179614443],[118.9112938935573,23.18462190260399],[118.90765440645224,23.19396664200182],[118.90426573100709,23.203391691502876],[118.90112998941137,23.212891294604727],[118.89824915069558,23.222459648091053],[118.89562502940971,23.23209090554621],[118.89325928439231,23.24177918089879],[118.89115341763096,23.251518551992223],[118.889308773215,23.261303064180208],[118.88772653638175,23.271126733944865],[118.88640773265693,23.280983552535584],[118.88535322709004,23.290867489626248],[118.88456372358581,23.300772496988788],[118.87961922677492,23.375343339525557],[118.87910580124058,23.384975140821425],[118.87884321880543,23.394615543153904],[118.87883168562082,23.404258981200392],[118.87907126302183,23.413899886692423],[118.87956186736584,23.423532691627408],[118.88030326995424,23.4331518314831],[118.88129509703788,23.44275174843269],[118.88253682990666,23.45232689455894],[118.88402780506333,23.461871735065284],[118.88576721448182,23.471380751482148],[118.88659288988052,23.475585520902595],[118.8885749654846,23.48503116824693],[118.89080228941317,23.49443024597596],[118.89327363154109,23.503777341725325],[118.89598762041291,23.51306707191305],[118.89894274391635,23.5222940848572],[118.90213735003908,23.531453063877798],[118.90556964770866,23.54053873038091],[118.90923770771545,23.549545846923493],[118.91313946371844,23.558469220256768],[118.91727271333326,23.567303704346568],[118.92134093989148,23.575719109610237],[118.92600036659971,23.585033989548357],[118.93091726834678,23.594235930640206],[118.93608847455222,23.603318897434566],[119.15767466681432,23.979501352828382],[119.1630279906754,23.98829495182866],[119.16862068133436,23.996962086604746],[119.17444924466042,24.005497267562763],[119.18051003497803,24.013895087580952],[119.18679925728742,24.022150225483383],[119.19331296958708,24.030257449461217],[119.20004708529632,24.038211620439256],[119.20699737577645,24.046007695385487],[119.2141594729499,24.05364073056133],[119.22152887201494,24.061105884710337],[119.22910093425487,24.06839842218322],[119.23687088993981,24.075513715997005],[119.2448338413196,24.082447250826178],[120.73732279111394,25.330311261975407],[120.74534813387935,25.336757226829942],[120.75354398793434,25.343023888314896],[120.76190551882262,25.349107531249818],[120.77042779162922,25.355004548430873],[120.77910577391454,25.36071144281698],[120.78793433871283,25.366224829650417],[120.79690826759342,25.371541438510494],[120.80602225378273,25.376658115298937],[120.87141228370021,25.412352460675777],[121.27318744649688,25.63067133309746],[121.82821402801689,25.96674251807914],[121.83749209323697,25.972177755600747],[121.8469177986338,25.97740177876134],[121.85648526284577,25.98241131935381],[121.86618851353187,25.987203243018527],[121.87602149116336,25.99177455125281],[121.88597805287728,25.996122383334036],[121.896051976389,26.000244018155115],[121.90623696396106,26.004136875970996],[121.91652664642551,26.007798520055022],[121.92691458725727,26.011226658263887],[121.93739428669532,26.014419144510228],[121.94795918590904,26.017373980141553],[121.95860267120678,26.020089315224826],[121.96931807828345,26.022563449735525],[121.98009869650463,26.0247948346506],[121.99093777322354,26.02678207294421],[122.00182851812824,26.028523920485892],[122.01276410761581,26.030019286840226],[122.02373768919038,26.031267235967654],[122.0347423858819,26.032266986825793],[122.0457713006823,26.033017913870854],[122.05681752099615,26.033519547458898],[122.06787412310238,26.033771574146524],[122.07893417662389,26.03377383689082],[122.08999074900187,26.033526335148544],[122.1010369099717,26.033029224874248],[122.11206573603675,26.032282818417553],[122.12307031493765,26.03128758431957],[122.1340437501129,26.030044147008613],[122.14497916514831,26.028553286395468],[122.15586970821178,26.026815937368447],[122.16670855647013,26.02483318918867],[122.17748892048492,26.022606284786008],[122.19015158982717,26.01983902492375],[122.20061059739412,26.01743043378141],[122.21100119214046,26.014792006194376],[122.22131717665816,26.011925317313825],[122.23155239939102,26.008832078366424],[122.24170075839666,26.005514135603228],[122.25175620507439,26.001973469166067],[122.26171274785665,25.99821219187239],[122.27156445586175,25.994232547919236],[122.28130546250503,25.990036911507282],[122.29092996906637,25.985627785385933],[122.30043224821182,25.981007799320363],[122.30980664746647,25.9761797084816],[122.31904759263713,25.97114639176078],[122.32814959118177,25.96591085000858],[122.33710723552416,25.960476204201186],[122.34591520631136,25.95484569353384],[122.35456827561198,25.949022673443498],[122.3630613100531,25.943010613561576],[122.37138927389432,25.93681309559852],[122.37954723203643,25.93043381116135],[122.38753035296341,25.92387655950569],[122.39533391161545,25.917145245223857],[122.40295329219195,25.91024387587045],[122.410383990882,25.90317655952702],[122.41762161852135,25.895947502307447],[122.42466190317428,25.88856100580561],[122.4315006926385,25.881021464487112],[122.43813395687195,25.87333336302664],[122.44455779034033,25.865501273592784],[122.45076841428363,25.857529853082028],[122.45676217890069,25.8494238403037],[122.46253556545065,25.8411880531177],[122.46808518827024,25.83282738552691],[122.47340779670562,25.824346804725987],[122.47850027695812,25.815751348108535],[122.48335965384277,25.80704612023461],[122.4879830924591,25.79823628976034],[122.4923678997729,25.78932708633164],[122.49651152610873,25.780323797444087],[122.50041156655273,25.771231765270738],[122.50406576226408,25.762056383460077],[122.50747200169624,25.752803093905804],[122.51062832172606,25.743477383490863],[122.51353290869118,25.73408478080734],[122.51618409933528,25.72463085285442],[122.51858038166088,25.71512120171651],[122.52072039568945,25.70556146122337],[122.52260293412883,25.69595729359443],[122.52422694294775,25.686314386069302],[122.5467996017907,25.54024720858785],[122.54813885495827,25.53074704814055],[122.5492276091146,25.52122049790345],[122.55006530133123,25.51167299226022],[122.55065151219588,25.502109976330267],[122.55098596591831,25.492536902859335],[122.55106853035421,25.482959229108573],[122.55089921694679,25.473382413743757],[122.55047818058692,25.463811913726577],[122.54980571939208,25.45425318120957],[122.54888227440418,25.44471166043663],[122.54770842920742,25.43519278465067],[122.54628490946584,25.4257019730103],[122.54461258238209,25.41624462751718],[122.54269245607694,25.406826129955697],[122.43977974994303,24.931565479227253],[122.43808925652573,24.92409997569304],[122.43624376340004,24.916665044195707]]]}},{"type":"Feature","properties":{"name":"中華民國鄰接區（24海里，東沙群島）","name_en":"ROC Contiguous Zone 24NM (Dongsha Islands)","zone_nm":24,"zone_m":44448.0,"source":"中華民國內政部 2009年基線公告 + 24NM 測地緩衝","method":"Azimuthal Equidistant geodetic buffer from official baselines"},"geometry":{"type":"Polygon","coordinates":[[[117.19153777692713,20.74357324947791],[117.1802129692757,20.570601698615132],[117.17944350345155,20.56079337254218],[117.1784192895297,20.55100572519365],[117.17714099027339,20.54124462565537],[117.1756094203452,20.531515925998463],[117.17382554570524,20.521825457782466],[117.17179048292046,20.512179028573264],[117.1695054983853,20.502582418477942],[117.16697200745527,20.493041376698486],[117.1641915734934,20.483561618106407],[117.16116590683093,20.47414881984033],[117.15789686364297,20.464808617928366],[117.15438644473961,20.45554660393738],[117.1506367942741,20.44636832165097],[117.14665019836873,20.43727926377816],[117.1424290836591,20.428284868694597],[117.13797601575877,20.41939051721821],[117.13329369764418,20.41060152942111],[117.1283849679621,20.4019231614795],[117.12325279926006,20.393360602563533],[117.11790029614107,20.38491897176874],[117.11233069334432,20.376603315090794],[117.10654735375246,20.368418602445313],[117.10055376632742,20.360369724734433],[117.09435354397539,20.352461490961673],[117.08795042134317,20.344698625396884],[117.08134825254648,20.337085764792608],[117.07455100883222,20.329627455653704],[117.06756277617575,20.32232815156148],[117.060387752815,20.315192210553974],[117.0530302467227,20.30822389256381],[117.04549467301808,20.301427356914974],[117.03778555132027,20.29480665987999],[117.02990750304392,20.288365752298713],[117.0218652486397,20.28210847726023],[117.01366360478065,20.2760385678489],[117.00530748149602,20.270159644955978],[116.99680187925478,20.264475215157905],[116.9881518859996,20.258988668662436],[116.97936267413408,20.253703277323755],[116.97043949746381,20.248622192727602],[116.96138768809399,20.243748444347517],[116.95221265328438,20.23908493777315],[116.94291987226441,20.23463445301159],[116.93351489300926,20.2303996428627],[116.9240033289791,20.22638303136921],[116.91439085582348,20.222587012342576],[116.90468320805229,20.219013847965225],[116.89488617567532,20.21566566747002],[116.88500560081215,20.21254446589767],[116.87504737427443,20.20965210293277],[116.86501743212206,20.20699030181893],[116.85492175219534,20.20456064835386],[116.84476635062497,20.202364589964642],[116.83455727832168,20.200403434863937],[116.82430061744738,20.198678351287423],[116.81400247786975,20.197190366812897],[116.80366899360214,20.195940367761498],[116.79330631923062,20.19492909868122],[116.78292062633028,20.19415716191315],[116.77251809987239,20.193625017240493],[116.76210493462453,20.19333298162075],[116.75168733154547,20.193281229001055],[116.74127149417693,20.19346979021682],[116.73086362503385,20.19389855297374],[116.72046992199508,20.194567261913164],[116.71009657469686,20.19547551876087],[116.69974976093037,20.19662278255895],[116.68943564304561,20.198008369980986],[116.67916036436354,20.199631455730042],[116.66893004559817,20.201491073019568],[116.65875078129083,20.203586114136627],[116.64862863625797,20.205915331087464],[116.63856964205505,20.208477336324844],[116.62857979345796,20.21127060355686],[116.61866504496385,20.214293468636775],[116.60883130731357,20.21754413053348],[116.59908444403726,20.22102065238185],[116.58943026802494,20.224720962612714],[116.5798745381245,20.2286428561616],[116.57042295576787,20.232783995755725],[116.56108116162854,20.23714191327853],[116.55185473231099,20.24171401121101],[116.54274917707474,20.24649756414899],[116.53376993459433,20.251489720395675],[116.52492236975725,20.256687503628594],[116.51621177050147,20.262087814639806],[116.50764334469444,20.267687433148794],[116.4992222170551,20.273483019686775],[116.49095342612105,20.279471117551545],[116.48284192126194,20.28564815483176],[116.4748925597415,20.29201044649952],[116.46711010382944,20.29855419657023],[116.45949921796478,20.30527550032838],[116.45206446597287,20.312170346618217],[116.44481030833688,20.319234620197896],[116.43774109952625,20.326464104155995],[116.43086108538279,20.333854482388794],[116.42417440056664,20.34140134213731],[116.4176850660636,20.349100176582372],[116.41139698675474,20.35694638749651],[116.40531394905052,20.36493528795104],[116.39943961859046,20.373062105077018],[116.39377753800984,20.381321982878305],[116.3883311247749,20.389709985095408],[116.38310366908793,20.39822109811834],[116.37809833186365,20.40685023394687],[116.31958792612316,20.510635555179],[116.31478751557785,20.519401392973865],[116.31021659669646,20.528275554847728],[116.30587795872385,20.537252702305526],[116.30177425259504,20.546327433990093],[116.2979079892608,20.555494288900004],[116.29428153809278,20.564747749645193],[116.29089712537004,20.574082245738353],[116.2877568328478,20.583492156920304],[116.28486259640961,20.592971816517423],[116.28221620480358,20.60251551482913],[116.27981929846429,20.612117502543512],[116.27767336842065,20.621771994179174],[116.27577975529125,20.631473171551107],[116.27413964836732,20.641215187258805],[116.27275408478485,20.65099216819439],[116.27162394878604,20.660798219068788],[116.27074997107121,20.670627425953864],[116.27013272824138,20.680473859838347],[116.26977264233282,20.69033158019561],[116.26966998044324,20.700194638560983],[116.26982485445089,20.710057082116588],[116.27023722082669,20.719912957281515],[116.27090688053984,20.72975631330528],[116.27183347905707,20.73958120586215],[116.27301650643629,20.74938170064452],[116.27445529751454,20.759151876952842],[116.27614903219015,20.768885831280166],[116.2780967358001,20.778577680888933],[116.28029727959165,20.78822156737797],[116.28274938128894,20.79781166023741],[116.28545160575409,20.80734216038942],[116.28840236574307,20.816807303712466],[116.29159992275564,20.826201364547057],[116.29504238797979,20.83551865918067],[116.30879626484091,20.871308316622283],[116.31241741599486,20.88038379787623],[116.31627107884847,20.889374379282692],[116.32035504195883,20.898274805014665],[116.32466695802779,20.907079871030202],[116.32920434519018,20.91578442814261],[116.33396458838419,20.92438338506026],[116.33894494080363,20.93287171139451],[116.34414252543102,20.941244440633618],[116.34955433665117,20.94949667308101],[116.35517724194413,20.957623578755896],[116.36100798365717,20.965620400254743],[116.36704318085418,20.973482455571393],[116.37327933124226,20.98120514087449],[116.37971281317394,20.988783933240274],[116.38633988772453,20.996214393339017],[116.39315670084262,21.003492168073528],[116.40015928557374,21.010612993167936],[116.40734356435476,21.017572695705272],[116.41470535137852,21.024367196612125],[116.42224035502718,21.030992513088822],[116.42994418037279,21.037444760983632],[116.43781233174342,21.04372015710944],[116.44584021535415,21.04981502150145],[116.45402314200032,21.055725779614438],[116.46235632981228,21.061448964458148],[116.47083490706943,21.066981218669532],[116.47945391507238,21.072319296520376],[116.5348625735697,21.105722917047334],[116.54372704505938,21.110921492816185],[116.55272482752721,21.115914811565734],[116.5618505251656,21.12069987183563],[116.5710986636495,21.125273797064924],[116.58046369346702,21.129633837357762],[116.58993999329991,21.133777371172012],[116.59952187345223,21.137701906929678],[116.60920357932433,21.14140508454801],[116.61897929493058,21.14488467689033],[116.62884314645801,21.14813859113554],[116.63878920586382,21.151164870065454],[116.64881149450932,21.153961693268997],[116.65890398682765,21.156527378262606],[116.66906061402355,21.158860381525955],[116.67927526780164,21.160959299452323],[116.68954180412176,21.16282286921304],[116.69985404697822,21.164449969535337],[116.7102057922007,21.165839621393143],[116.72059081127412,21.16699098861026],[116.73100285517495,21.167903378375705],[116.74143565822148,21.168576241670635],[116.7518829419352,21.16900917360672],[116.76233841891086,21.16920191367569],[116.77279579669279,21.169154345909877],[116.78324878165432,21.168866498953687],[116.79369108287818,21.168338546045835],[116.80411641603503,21.167570804912593],[116.81451850725747,21.166563737571796],[116.82489109700705,21.165317950048042],[116.83522794393163,21.16383419199909],[116.84552282871013,21.16211335625382],[116.85576955788292,21.160156478261946],[116.8659619676642,21.157964735455998],[116.8760939277348,21.15553944652589],[116.8861593450119,21.152882070606637],[116.8961521673942,21.149994206379706],[116.90606638747903,21.14687759108869],[116.9158960462496,21.143534099469885],[116.92563523672965,21.139965742598527],[116.93527810760308,21.136174666651502],[116.94481886679638,21.13216315158728],[116.95425178502117,21.127933609744037],[116.96357119927478,21.12348858435685],[116.97277151629656,21.118830747995],[116.9818472159775,21.113962900920384],[116.9907928547213,21.108887969368233],[116.99960306875415,21.103609003751046],[117.00827257738185,21.098129176787303],[117.01679618619143,21.0924517815558],[117.02516879019596,21.08658022947726],[117.03338537691992,21.080518048224253],[117.0414410294238,21.07426887956101],[117.04933092926538,21.06783647711449],[117.05705035939674,21.061224704078125],[117.0645947069943,21.05443753084983],[117.0719594662208,21.047479032605743],[117.07914024091755,21.040353386811404],[117.08613274722472,21.033064870671804],[117.09293281612915,21.025617858522203],[117.09953639593704,21.018016819161172],[117.10593955467125,21.010266313127797],[117.11213848239083,21.002370989924675],[117.11812949343219,20.994335585188495],[117.1239090285703,20.986164917810104],[117.12947365709873,20.977863887005867],[117.13482007882787,20.9694374693421],[117.13994512599946,20.960890715714694],[117.1448457651172,20.95222874828556],[117.14951909869218,20.943456757378147],[117.15396236690214,20.93457999833374],[117.15817294916401,20.925603788330676],[117.16214836561895,20.916533503168402],[117.16588627852879,20.907374574018437],[117.16938449358409,20.8981324841443],[117.17264096112233,20.888812765592256],[117.17565377725643,20.879420995855284],[117.17842118491279,20.86996279451195],[117.18094157477861,20.860443819842565],[117.18321348615827,20.850869765424562],[117.18523560773818,20.841246356709206],[117.18700677826037,20.83157934758172],[117.18852598710447,20.821874516907013],[117.18979237477771,20.812137665063],[117.19080523331357,20.802374610463648],[117.19156400657849,20.79259118607398],[117.19206829048719,20.78279323591886],[117.19231783312652,20.77298661158799],[117.19231253478803,20.76317716873892],[117.19205244790972,20.753370763600383],[117.19153777692713,20.74357324947791]]]}}]}