{"type":"FeatureCollection","description":"中華民國領海外界線（12海里）- 台灣本島+澎湖、東沙群島","features":[{"type":"Feature","properties":{"name":"中華民國領海（12海里，台灣本島+澎湖）","name_en":"ROC Territorial Sea 12NM (Taiwan & Penghu)","zone_nm":12,"zone_m":22224.0,"source":"中華民國內政部 2009年基線公告 + 12NM 測地緩衝","method":"Azimuthal Equidistant geodetic buffer from official baselines"},"geometry":{"type":"Polygon","coordinates":[[[122.22208423798442,24.962623340254055],[122.17870712836692,24.793910968817443],[122.17863208255027,24.793619628942633],[122.11671700473796,24.5535557682637],[122.11537463690777,24.54862113958868],[122.11389608965243,24.543719179667434],[122.11228232706374,24.538853033475576],[122.07112583832604,24.420057023312527],[122.07085059641528,24.41926739616101],[121.73434319859356,23.452790431848687],[121.7387429886718,22.69796615209711],[121.83094583875497,21.973350284238926],[121.83151310545216,21.96832948404598],[121.8319447841812,21.963296976948154],[121.83224061639919,21.958255948335438],[121.83240042960786,21.953209588643343],[121.83242413742535,21.948161091332793],[121.83231173960367,21.943113650868938],[121.83206332199146,21.9380704607003],[121.83167905644238,21.933034711239284],[121.83115920066935,21.928009587845715],[121.83050409804478,21.92299826881419],[121.82971417734689,21.91800392336696],[121.82878995245254,21.913029709653305],[121.82773202197669,21.908078772756767],[121.82654106885897,21.90315424271145],[121.82521785989766,21.89825923252872],[121.82376324523125,21.89339683623538],[121.8221781577684,21.88857012692465],[121.81830510252897,21.877283579901782],[121.8166490974557,21.872651927403126],[121.81487298523369,21.868059248053584],[121.81297782734092,21.863508256420886],[121.81096475529075,21.859001642172615],[121.8088349699398,21.854542068494293],[121.80658974075536,21.850132170523743],[121.80423040504394,21.84577455380244],[121.80175836714021,21.841471792744933],[121.7991750975582,21.83722642912695],[121.79648213210375,21.83304097059333],[121.79368107095047,21.82891788918647],[121.79077357767838,21.824859619896163],[121.78776137827661,21.82086855923166],[121.78464626011042,21.81694706381679],[121.78143007085353,21.81309744900893],[121.77811471738607,21.80932198754252],[121.77470216465876,21.805622908198092],[121.7711944345247,21.802002394497332],[121.76759360453839,21.79846258342508],[121.76390180672367,21.79500556417896],[121.76012122631069,21.791633376947274],[121.7562541004432,21.788348011715918],[121.7523027168561,21.78515140710499],[121.74826941252505,21.782045449235735],[121.74415657228815,21.779031970628388],[121.7399666274408,21.7761127491317],[121.73570205430444,21.77328950688456],[121.73136537277034,21.770563909310496],[121.72695914481862,21.767937564145384],[121.72248597301406,21.765412020499095],[121.7179484989791,21.76298876795158],[121.71334940184506,21.76066923568379],[121.70869139668253,21.758454791644013],[121.70397723291147,21.756346741750104],[121.6992096926926,21.754346329127944],[121.69439158930014,21.752454733386696],[121.68952576547765,21.750673069931132],[121.68461509177712,21.749002389311524],[121.67966246488292,21.747443676611354],[121.67467080592107,21.745997850873284],[121.669643058755,21.74466576456362],[121.66458218826872,21.74344820307564],[120.87856293375044,21.561622295343554],[120.87342237605249,21.56048138194047],[120.86825342424869,21.559459089376894],[120.8630592010395,21.558556035116652],[120.85784284419975,21.557772764592485],[120.852607504706,21.55710975088065],[120.84735634485642,21.556567394418842],[120.84209253638404,21.556146022767344],[120.83681925856511,21.555845890413696],[120.83153969632252,21.555667178620947],[120.82625703832677,21.55560999531954],[120.82097447509423,21.55567437504302],[120.8156951970847,21.555860278907378],[120.81042239279877,21.55616759463428],[120.80515924687644,21.55659613661802],[120.79990893819804,21.55714564603619],[120.79467463798797,21.55781579100407],[120.78945950792333,21.558606166772492],[120.78426669824746,21.559516295969303],[120.77909934589046,21.560545628884043],[120.77396057259669,21.56169354379584],[120.7688534830614,21.5629593473443],[120.76378116307669,21.564342274943108],[120.75874667768826,21.565841491236284],[120.75375306936414,21.567456090596544],[120.74880335617584,21.569185097665816],[120.74390052999378,21.571027467937363],[120.73904755469738,21.572982088379256],[120.734247364401,21.57504777809888],[120.72950286169706,21.577223289048096],[120.7248169159169,21.579507306768487],[120.72019236141072,21.581898451176595],[120.71563199584726,21.584395277388346],[120.71113857853483,21.58699627658245],[120.70671482876368,21.589699876902134],[120.70236342417178,21.592504444394788],[120.69808699913406,21.59540828398892],[120.69388814317662,21.598409640507835],[120.68976939941653,21.601506699719685],[120.68573326302831,21.604697589422845],[120.68178217973801,21.60798038056649],[120.67791854434553,21.611353088405387],[120.67414469927644,21.61481367368835],[120.67046293316388,21.618360043879704],[120.66687547946148,21.621990054412986],[120.66338451508815,21.62570150997622],[120.65999215910571,21.629492165828015],[120.65670047142969,21.633359729143624],[120.19164167270519,22.190837488360287],[119.26330184005926,23.05084821136966],[119.25974908243113,23.054184216252732],[119.25628126891792,23.057595965804136],[119.25290028947269,23.061081606741347],[119.24960798730929,23.064639245510445],[119.24640615789642,23.068266949305638],[119.2432965479757,23.071962747110224],[119.24028085460581,23.075724630758433],[119.23736072423179,23.07955055601759],[119.13947579638868,23.210857884129496],[119.13647950919504,23.214980230161697],[119.1335943501235,23.219169790337087],[119.13082209254354,23.22342400440577],[119.12816444132609,23.227740272376682],[119.1256230317834,23.232115956095395],[119.12319942864987,23.236548380845637],[119.12089512510467,23.241034836973594],[119.11871154183659,23.245572581534066],[119.11665002615177,23.250158839957415],[119.11471185112534,23.254790807736462],[119.11289821479667,23.259465652132178],[119.11121023940979,23.26418051389726],[119.10964897069853,23.268932509016484],[119.10821537721782,23.273718730462914],[119.1069103497209,23.278536249968766],[119.10573470058324,23.28338211981001],[119.10468916327343,23.28825337460354],[119.1037743918717,23.29314703311585],[119.10299096063615,23.298060100082214],[119.10233936361718,23.30298956803513],[119.1018200143204,23.30793241914107],[119.10143324541838,23.312885627044295],[119.09660953248881,23.387465724817414],[119.09636065264456,23.392282138273522],[119.09623723295948,23.397102680889386],[119.09623935835033,23.40192456913789],[119.0963670412606,23.406745018416366],[119.09662022162175,23.41156124465409],[119.09699876685619,23.416370465920135],[119.0975024719224,23.421169904030663],[119.09813105940185,23.42595678615478],[119.09888417962797,23.43072834641801],[119.09976141085706,23.43548182750234],[119.1005937047189,23.43968561317044],[119.10159212953239,23.444407247646225],[119.10271303830943,23.449105435912976],[119.10395579917977,23.45377747483459],[119.10531970995464,23.458420676034457],[119.1068039985023,23.463032367446786],[119.108407823164,23.46760989485921],[119.11013027321113,23.472150623445717],[119.1119703693424,23.47665193928907],[119.11392706422168,23.4811112508917],[119.11599924305567,23.485525990674347],[119.1200778474819,23.493936484766813],[119.1224131792626,23.49859112250297],[119.12487691991242,23.503189160074587],[119.12746747001923,23.507727587417005],[119.34945311697992,23.883648377816947],[119.352134321352,23.88804202136813],[119.35493484698138,23.892372330237674],[119.35785293596449,23.896636567868057],[119.36088675556633,23.90083203918393],[119.36403439935745,23.90495609230746],[119.36729388839919,23.909006120246936],[119.37066317247653,23.912979562557368],[119.37414013137779,23.91687390697212],[119.37772257622046,23.92068669100444],[119.38140825082233,23.924415503517878],[119.38519483311684,23.928057986264502],[119.38907993661226,23.93161183538993],[119.39306111189346,23.935074802904182],[120.88529420689517,25.181530689379983],[120.88930581228078,25.18474993564249],[120.89340225853343,25.187879556957576],[120.89758113175327,25.19091770457319],[120.90183996879661,25.193862583645053],[120.90617625873324,25.196712454308624],[120.91058744433386,25.19946563271853],[120.91507092358653,25.202120492054693],[120.91962405124085,25.204675463494794],[120.98496903039891,25.240329449935068],[121.39146775000518,25.461108409474605],[121.95097108764196,25.799731279567002],[121.95560630525358,25.80244536525806],[121.96031493544105,25.80505393276051],[121.96509404795557,25.807555356648663],[121.96994066806626,25.809948078177968],[121.97485177842755,25.81223060626804],[121.97982432097496,25.814401518443375],[121.98485519884811,25.81645946173078],[121.98994127833916,25.81840315351318],[121.995079390866,25.82023138233918],[122.00026633496859,25.821943008687736],[122.00549887832702,25.82353696568764],[122.01077375980047,25.825012259791023],[122.016087691485,25.82636797140082],[122.02143736078945,25.82760325545144],[122.02681943252772,25.82871734194245],[122.03223055102606,25.829709536424843],[122.03766734224422,25.830579220439596],[122.0431264159086,25.831325851908176],[122.04860436765657,25.831948965474883],[122.05409778118975,25.832448172800532],[122.05960323043578,25.83282316280759],[122.06511728171623,25.833073701876327],[122.0706364959196,25.833199633992095],[122.07615743067818,25.833200880843453],[122.08167664254685,25.833077441871158],[122.08719068918258,25.83282939426795],[122.0926961315233,25.83245689292926],[122.09818953596435,25.831960170354602],[122.10366747653147,25.83133953650006],[122.10912653704848,25.83059537858169],[122.11456331329833,25.82972816083011],[122.11997441517642,25.828738424196434],[122.12535646883396,25.827626786009645],[122.13800023384455,25.824864006594808],[122.14322201261146,25.82366164904049],[122.14840980765645,25.822344532393775],[122.153560538175,25.82091343918477],[122.15867114570433,25.819369219611296],[122.16373859596231,25.817712791026565],[122.16875988067136,25.815945137386635],[122.17373201936542,25.814067308657698],[122.17865206117955,25.812080420183882],[122.18351708662047,25.80998565201577],[122.18832420931734,25.8077842482002],[122.19307057775148,25.805477516031683],[122.1977533769639,25.803066825265958],[122.20236983023982,25.800553607296234],[122.20691720076901,25.797939354292534],[122.21139279328068,25.795225618304762],[122.21579395565242,25.792414010330088],[122.22011808049179,25.78950619934509],[122.22436260668967,25.78650391130343],[122.22852502094462,25.783408928099632],[122.23260285925709,25.78022308649955],[122.23659370839277,25.77694827703834],[122.24049520731397,25.773586442886387],[122.24430504857845,25.770139578684265],[122.24802097970469,25.766609729347042],[122.25164080450276,25.76299898883897],[122.25516238437014,25.759309498919254],[122.25858363955179,25.755543447859537],[122.2619025503633,25.751703069134177],[122.26511715837715,25.747790640083835],[122.2682255675706,25.7438084805534],[122.27122594543518,25.739758951504985],[122.27411652404689,25.73564445360695],[122.27689560109636,25.73146742579972],[122.27956154087882,25.727230343839313],[122.28211277524296,25.722935718819564],[122.28454780449827,25.718586095673743],[122.28686519828045,25.714184051656776],[122.28906359637439,25.70973219480869],[122.29114170949425,25.705233162400454],[122.29309832002028,25.700689619363033],[122.29493228269193,25.69610425670071],[122.29664252525714,25.6914797898895],[122.2982280490771,25.68681895726178],[122.29968792968668,25.682124518378018],[122.30102131730966,25.6773992523866],[122.30222743732922,25.672645956372776],[122.30330559071307,25.667867443697673],[122.30425515439283,25.6630665423284],[122.3050755815983,25.658246093160322],[122.32790392985572,25.512206488993783],[122.32858188228494,25.507457214113163],[122.32913466965455,25.50269456939616],[122.32956199124983,25.4979212706736],[122.3298636179841,25.493140039547896],[122.33003939249602,25.488353601840036],[122.33008922920611,25.483564686034867],[122.33001311433216,25.478776021725512],[122.32981110586381,25.47399033805795],[122.32948333349609,25.469210362176447],[122.3290299985225,25.464438817670867],[122.32845137368737,25.45967842302667],[122.32774780299772,25.454931890078495],[122.326919701495,25.450201922468256],[122.32596755498682,25.44549121410848],[122.22384020069022,24.970076165240663],[122.22300102400527,24.96634215948281],[122.22208423798442,24.962623340254055]]]}},{"type":"Feature","properties":{"name":"中華民國領海（12海里，東沙群島）","name_en":"ROC Territorial Sea 12NM (Dongsha Islands)","zone_nm":12,"zone_m":22224.0,"source":"中華民國內政部 2009年基線公告 + 12NM 測地緩衝","method":"Azimuthal Equidistant geodetic buffer from official baselines"},"geometry":{"type":"Polygon","coordinates":[[[116.97853441643201,20.755796100319486],[116.96744964246588,20.58280983176772],[116.96707167013402,20.57790517586386],[116.96656626308453,20.57301070677089],[116.96593373668686,20.568129360651426],[116.96517448246045,20.563264065520737],[116.96428896781114,20.558417739493134],[116.96327773572287,20.553593289034847],[116.96214140440394,20.548793607224596],[116.96088066688914,20.544021572022775],[116.9594962905975,20.539280044550317],[116.95798911684584,20.534571867378276],[116.95636006031906,20.52989986282907],[116.9546101084969,20.525266831290473],[116.95274032103814,20.52067554954328],[116.9507518291221,20.516128769103663],[116.94864583474848,20.511629214581156],[116.94642360999546,20.507179582053332],[116.94408649623696,20.502782537457954],[116.94163590331937,20.498440715003696],[116.93907330869833,20.494156715600283],[116.93640025653613,20.489933105309003],[116.9336183567603,20.48577241381443],[116.93072928408395,20.481677132918367],[116.92773477698861,20.477649715056707],[116.92463663666996,20.47369257184029],[116.92143672594747,20.469808072620395],[116.91813696813824,20.465998543079813],[116.91473934589595,20.46226626385033],[116.91124590001567,20.458613469157346],[116.90765872820508,20.455042345492423],[116.903979983823,20.451555030314587],[116.90021187458595,20.448153610781123],[116.89635666124343,20.444840122508456],[116.89241665622288,20.441616548364063],[116.88839422224497,20.4384848172899],[116.88429177091017,20.43544680315814],[116.88011176125728,20.43250432365981],[116.87585669829498,20.429659139227052],[116.871529131507,20.42691295198949],[116.86713165333218,20.424267404765427],[116.86266689761968,20.42172408008836],[116.8581375380611,20.419284499269434],[116.85354628659948,20.41695012149634],[116.84889589181694,20.414722342969124],[116.84418913730114,20.412602496073482],[116.83942883999231,20.41059184859198],[116.83461784851102,20.4086916029536],[116.82975904146815,20.406902895522105],[116.8248553257578,20.4052267959236],[116.81990963483429,20.403664306413674],[116.81492492697416,20.402216361284445],[116.80990418352384,20.400883826311915],[116.80485040713472,20.399667498243893],[116.79976661998583,20.398568104328813],[116.79465586199578,20.397586301885635],[116.78952118902431,20.396722677915218],[116.7843656710653,20.395977748753207],[116.77919239043143,20.39535195976479],[116.77400443993213,20.394845685081425],[116.76880492104547,20.394459227379617],[116.76359694208521,20.394192817702052],[116.75838361636413,20.394046615320956],[116.7531680603542,20.394020707644014],[116.74795339184537,20.394115110162637],[116.74274272810334,20.394329766442834],[116.73753918402777,20.394664548158556],[116.73234587031172,20.395119255167533],[116.72716589160358,20.39569361562959],[116.72200234467225,20.39638728616726],[116.7168583165769,20.397199852068862],[116.7117368828422,20.39813082753359],[116.70664110563987,20.399179655958694],[116.70157403197807,20.40034571026859],[116.69653869189895,20.401628293285615],[116.69153809668629,20.403026638142272],[116.68657523708309,20.40453990873471],[116.68165308152142,20.40616720021725],[116.67677457436437,20.40790753953757],[116.67194263416185,20.409759886012303],[116.66716015192094,20.411723131942768],[116.6624299893918,20.413796103270386],[116.6577549773702,20.415977560271468],[116.65313791401753,20.41826619829098],[116.64858156319924,20.420660648514893],[116.64408865284305,20.42315947878058],[116.63966187331707,20.42576119442492],[116.63530387582962,20.428464239169518],[116.63101727085133,20.431266996042694],[116.62680462656009,20.434167788337476],[116.62266846731043,20.437164880605305],[116.61861127212768,20.4402564796847],[116.61463547322805,20.443440735764394],[116.61074345456537,20.446715743480304],[116.60693755040559,20.450079543045682],[116.6032200439295,20.453530121413845],[116.59959316586472,20.457065413472822],[116.5960590931479,20.46068330327114],[116.59261994761769,20.46438162527418],[116.58927779473939,20.46815816565028],[116.5860346423619,20.472010663585905],[116.58289243950799,20.475936812629058],[116.57985307519857,20.479934262060258],[116.57691837731119,20.484000618290175],[116.57409011147433,20.48813344628323],[116.57136997999736,20.492330271006235],[116.56875962083738,20.49658857890134],[116.56626060660332,20.500905819382297],[116.50784098370937,20.60475413952577],[116.50544473113072,20.609139663468525],[116.50316349541968,20.61357925757347],[116.50099866123503,20.618070246523747],[116.49895154344598,20.62260992380134],[116.49702338631889,20.62719555331018],[116.49521536274604,20.631824371017697],[116.4935285735161,20.636493586613543],[116.49196404662734,20.64120038518478],[116.4905227366437,20.64594192890641],[116.48920552409423,20.65071535874624],[116.48801321491658,20.655517796183126],[116.48694653994448,20.66034634493759],[116.48600615444012,20.665198092713673],[116.48519263767116,20.670070112951148],[116.48450649253333,20.67495946658687],[116.48394814521839,20.67986320382445],[116.48351794492798,20.684778365910876],[116.48321616363361,20.68970198691939],[116.48304299588291,20.69463109553716],[116.48299855865237,20.699562716857116],[116.48308289124664,20.70449387417237],[116.48329595524483,20.709421590772624],[116.48363763449335,20.71434289174112],[116.4841077351461,20.7192548057513],[116.48470598575136,20.724154366861907],[116.4854320373859,20.729038616309523],[116.48628546383594,20.73390460429752],[116.48726576182527,20.73874939178015],[116.48837235129018,20.743570052240916],[116.48960457570128,20.74836367346398],[116.49096170243187,20.75312735929761],[116.49244292317309,20.75785823140849],[116.49404735439516,20.762553431025996],[116.49577403785506,20.767210120675152],[116.50956918540308,20.802984183899543],[116.51138491430869,20.807519878745406],[116.51331667858436,20.812013010393024],[116.51536336080109,20.81646095594243],[116.5175237761371,20.82086111864453],[116.51979667304879,20.825210929424],[116.52218073398193,20.829507848386537],[116.52467457612215,20.833749366309426],[116.52727675218466,20.837933006114667],[116.52998575124263,20.84205632432375],[116.5327999995937,20.84611691249306],[116.5357178616645,20.850112398629307],[116.53873764095219,20.854040448583916],[116.54185758100303,20.85789876742559],[116.54507586642688,20.861685100790286],[116.5483906239476,20.86539723620773],[116.55179992348835,20.869033004403647],[116.55530177929136,20.87259028057698],[116.55889415107161,20.876066985651292],[116.56257494520345,20.879461087499582],[116.56634201593984,20.882770602141743],[116.57019316666326,20.88599359491406],[116.57412615116772,20.889128181609866],[116.57813867497094,20.892172529590745],[116.58222839665606,20.895124858867693],[116.58639292924214,20.89798344315132],[116.5906298415824,20.90074661087077],[116.59493665978968,20.903412746160466],[116.65030903264683,20.936779727485096],[116.65473822778145,20.93937614172787],[116.65923377471965,20.941869998939552],[116.66379298351092,20.944259805185684],[116.66841312566845,20.94654412879417],[116.67309143581373,20.94872160122182],[116.67782511334417,20.95079091788286],[116.68261132412331,20.952750838938865],[116.6874472021919,20.9546001900496],[116.69232985149927,20.956337863084332],[116.69725634765375,20.95796281679311],[116.70222373969095,20.95947407743768],[116.70722905185887,20.960870739381477],[116.71226928541878,20.96215196563854],[116.71734142046074,20.963316988380754],[116.72244241773222,20.96436510940332],[116.72756922047945,20.96529570054808],[116.73271875629956,20.966108204084257],[116.73788793900277,20.966802133046684],[116.74307367048327,20.967377071531118],[116.74827284259779,20.967832674946358],[116.7534823390505,20.968168670223296],[116.75869903728295,20.968384855980485],[116.76391981036822,20.968481102646265],[116.7691415289077,20.968457352537335],[116.77436106292947,20.968313619893774],[116.77957528378707,20.968049990870316],[116.78478106605743,20.967666623484135],[116.78997528943665,20.967163747519006],[116.7951548406327,20.966541664385872],[116.80031661525348,20.9658007469401],[116.80545751968941,20.9649414392553],[116.81057447298896,20.963964256354043],[116.8156644087263,20.962869783895567],[116.82072427685968,20.96165867782062],[116.82575104557934,20.960331663953806],[116.83074170314399,20.95888953756354],[116.83569325970436,20.957333162879994],[116.84060274911302,20.95566347257126],[116.84546723071922,20.953881467178146],[116.85028379114729,20.951988214507885],[116.85504954605815,20.94998484898721],[116.85976164189219,20.9478725709751],[116.86441725759263,20.945652646035825],[116.86901360630866,20.94332640417248],[116.87354793707661,20.940895239021764],[116.8780175364787,20.938360607010303],[116.8824197302779,20.935724026473157],[116.8867518850285,20.93298707673509],[116.8910114096604,20.93015139715503],[116.89519575703721,20.927218686134573],[116.89930242548664,20.924190700090822],[116.9033289603021,20.921069252394574],[116.90727295521513,20.917856212274195],[116.91113205383733,20.914553503686083],[116.91490395107091,20.911163104152394],[116.91858639448749,20.90768704356659],[116.92217718567372,20.9041274029678],[116.92567418154319,20.900486313284635],[116.92907529561397,20.896765954049194],[116.93237849925079,20.892968552082174],[116.93558182287131,20.889096380149798],[116.93868335711565,20.885151755593487],[116.94168125397839,20.88113703893308],[116.94457372790296,20.877054632444423],[116.94735905683692,20.872906978712333],[116.95003558324812,20.8686965591597],[116.9526017151012,20.86442589255369],[116.95505592679342,20.86009753349],[116.95739676004986,20.85571407085608],[116.95962282477687,20.851278126274202],[116.96173279987399,20.846792352525423],[116.96372543400332,20.842259431955398],[116.96559954631637,20.83768207486292],[116.96735402713747,20.833063017872334],[116.96898783860415,20.828405022290656],[116.97050001526335,20.82371087245056],[116.97188966462379,20.818983374040037],[116.9731559676638,20.814225352420006],[116.97429817929469,20.8094396509306],[116.9753156287792,20.804629129187468],[116.97620772010512,20.799796661368834],[116.97697393231341,20.794945134494554],[116.97761381978138,20.790077446698074],[116.97812701246035,20.785196505492483],[116.9785132160678,20.780305226031523],[116.97877221223396,20.775406529366727],[116.97890385860319,20.7705033407017],[116.97890808888941,20.765598587644565],[116.97878491288627,20.760695198459665],[116.97853441643201,20.755796100319486]]]}}]}